NORAD_CAT_ID,OBJECT_NAME,OBJECT_TYPE,EPOCH,MEAN_MOTION,ECCENTRICITY,INCLINATION,RA_OF_ASC_NODE,ARG_OF_PERICENTER,MEAN_ANOMALY,BSTAR,MEAN_MOTION_DOT,MEAN_MOTION_DDOT,TLE_LINE0,TLE_LINE1,TLE_LINE2,SEMIMAJOR_AXIS,PERIOD,APOGEE,PERIGEE,DECAYED
52369.0,STARLINK-3841,PAYLOAD,2024-06-08 08:42:22,15.08844675,0.0001481,53.2176,179.171,94.4043,265.7118,7.5948e-05,9.21e-06,0.0,0 STARLINK-3841,1 52369U 22045AQ  24160.36275719  .00000921  00000-0  75948-4 0  9990,2 52369  53.2176 179.1710 0001481  94.4043 265.7118 15.08844675119408,6917.866,95.437,540.756,538.707,0.0
52369.0,STARLINK-3841,PAYLOAD,2024-06-08 18:14:40,15.08849605,0.0001461,53.2171,177.386,85.5118,274.6041,7.6303e-05,9.27e-06,0.0,0 STARLINK-3841,1 52369U 22045AQ  24160.76019283  .00000927  00000-0  76303-4 0  9998,2 52369  53.2171 177.3860 0001461  85.5118 274.6041 15.08849605119469,6917.851,95.437,540.727,538.705,0.0
52369.0,STARLINK-3841,PAYLOAD,2024-06-09 05:22:23,15.08832164,0.0001225,53.2167,175.3041,87.8918,272.2214,2.8488e-05,1.65e-06,0.0,0 STARLINK-3841,1 52369U 22045AQ  24161.22388576  .00000165  00000-0  28488-4 0  9999,2 52369  53.2167 175.3041 0001225  87.8918 272.2214 15.08832164119530,6917.904,95.438,540.617,538.922,0.0
52369.0,STARLINK-3841,PAYLOAD,2024-06-09 08:33:10,15.08834014,0.0001504,53.2168,174.7088,81.1291,278.9871,3.2472e-06,-2.36e-06,0.0,0 STARLINK-3841,1 52369U 22045AQ  24161.35636580 -.00000236  00000-0  32472-5 0  9993,2 52369  53.2168 174.7088 0001504  81.1291 278.9871 15.08834014119556,6917.899,95.438,540.804,538.723,0.0
52369.0,STARLINK-3841,PAYLOAD,2024-06-09 18:05:28,15.08838592,0.0001473,53.2168,172.9261,87.0497,273.0664,3.6929e-05,3e-06,0.0,0 STARLINK-3841,1 52369U 22045AQ  24161.75380247  .00000300  00000-0  36929-4 0  9994,2 52369  53.2168 172.9261 0001473  87.0497 273.0664 15.08838592119615,6917.885,95.438,540.769,538.731,0.0
52369.0,STARLINK-3841,PAYLOAD,2024-06-10 06:48:33,15.0884516,0.000153,53.2165,170.5474,86.0013,274.1154,6.8808e-05,8.07e-06,0.0,0 STARLINK-3841,1 52369U 22045AQ  24162.28371718  .00000807  00000-0  68808-4 0  9999,2 52369  53.2165 170.5474 0001530  86.0013 274.1154 15.08845160119692,6917.865,95.437,540.788,538.671,0.0
52369.0,STARLINK-3841,PAYLOAD,2024-06-10 17:56:14,15.08846249,0.0001265,53.2159,168.4651,103.8767,256.2366,5.1021e-05,5.24e-06,0.0,0 STARLINK-3841,1 52369U 22045AQ  24162.74739461  .00000524  00000-0  51021-4 0  9998,2 52369  53.2159 168.4651 0001265 103.8767 256.2366 15.08846249119760,6917.861,95.437,540.601,538.851,0.0
52369.0,STARLINK-3841,PAYLOAD,2024-06-11 06:39:20,15.0883885,0.0001373,53.2164,166.086,85.7543,274.3606,8.2561e-05,1.026e-05,0.0,0 STARLINK-3841,1 52369U 22045AQ  24163.27731952  .00001026  00000-0  82561-4 0  9995,2 52369  53.2164 166.0860 0001373  85.7543 274.3606 15.08838850119848,6917.884,95.438,540.699,538.799,0.0
52369.0,STARLINK-3841,PAYLOAD,2024-06-12 06:30:07,15.0882997,0.0001437,53.2173,161.6253,93.7151,266.4006,0.00012054,1.63e-05,0.0,0 STARLINK-3841,1 52369U 22045AQ  24164.27092524  .00001630  00000-0  12054-3 0  9991,2 52369  53.2173 161.6253 0001437  93.7151 266.4006 15.08829970119995,6917.911,95.438,540.77,538.782,0.0
52369.0,STARLINK-3841,PAYLOAD,2024-06-13 04:45:31,15.08840283,0.0001477,53.2172,157.4625,93.9101,266.206,2.6573e-05,1.35e-06,0.0,0 STARLINK-3841,1 52369U 22045AQ  24165.19828027  .00000135  00000-0  26573-4 0  9999,2 52369  53.2172 157.4625 0001477  93.9101 266.2060 15.08840283120137,6917.88,95.438,540.766,538.723,0.0
52369.0,STARLINK-3841,PAYLOAD,2024-06-13 09:31:40,15.0884168,0.0001462,53.2172,156.5711,93.4502,266.6658,4.9347e-05,4.98e-06,0.0,0 STARLINK-3841,1 52369U 22045AQ  24165.39699853  .00000498  00000-0  49347-4 0  9990,2 52369  53.2172 156.5711 0001462  93.4502 266.6658 15.08841680120169,6917.875,95.437,540.752,538.729,0.0
52369.0,STARLINK-3841,PAYLOAD,2024-06-13 15:53:13,15.08842394,0.0001458,53.2172,155.3816,93.2901,266.8258,5.1195e-05,5.27e-06,0.0,0 STARLINK-3841,1 52369U 22045AQ  24165.66195746  .00000527  00000-0  51195-4 0  9999,2 52369  53.2172 155.3816 0001458  93.2901 266.8258 15.08842394120204,6917.873,95.437,540.747,538.729,0.0
52369.0,STARLINK-3841,PAYLOAD,2024-06-14 06:11:42,15.0882085,0.0001484,53.2177,152.7056,91.5576,268.5586,0.00012013,1.623e-05,0.0,0 STARLINK-3841,1 52369U 22045AQ  24166.25813215  .00001623  00000-0  12013-3 0  9996,2 52369  53.2177 152.7056 0001484  91.5576 268.5586 15.08820850120299,6917.939,95.439,540.831,538.777,0.0
52369.0,STARLINK-3841,PAYLOAD,2024-06-14 22:05:33,15.0883267,0.0001497,53.2182,149.732,96.1822,263.9341,0.00011078,1.475e-05,0.0,0 STARLINK-3841,1 52369U 22045AQ  24166.92052423  .00001475  00000-0  11078-3 0  9991,2 52369  53.2182 149.7320 0001497  96.1822 263.9341 15.08832670120396,6917.903,95.438,540.803,538.732,0.0
52369.0,STARLINK-3841,PAYLOAD,2024-06-15 06:02:28,15.08842418,0.0001476,53.218,148.2452,95.0541,265.062,3.707e-05,3.02e-06,0.0,0 STARLINK-3841,1 52369U 22045AQ  24167.25172210  .00000302  00000-0  37070-4 0  9994,2 52369  53.2180 148.2452 0001476  95.0541 265.0620 15.08842418120447,6917.873,95.437,540.759,538.717,0.0
52369.0,STARLINK-3841,PAYLOAD,2024-06-15 15:34:47,15.08846997,0.0001488,53.2183,146.4609,93.8459,266.2704,5.814e-05,6.38e-06,0.0,0 STARLINK-3841,1 52369U 22045AQ  24167.64915781  .00000638  00000-0  58140-4 0  9998,2 52369  53.2183 146.4609 0001488  93.8459 266.2704 15.08846997120500,6917.859,95.437,540.753,538.695,0.0
52369.0,STARLINK-3841,PAYLOAD,2024-06-16 07:28:39,15.08834358,0.0001585,53.2175,143.4854,85.7143,274.403,3.4049e-05,2.54e-06,0.0,0 STARLINK-3841,1 52369U 22045AQ  24168.31156860  .00000254  00000-0  34049-4 0  9994,2 52369  53.2175 143.4854 0001585  85.7143 274.4030 15.08834358120600,6917.898,95.438,540.859,538.666,0.0
52369.0,STARLINK-3841,PAYLOAD,2024-06-16 15:25:34,15.08841248,0.00015,53.217,141.9996,87.2022,272.9142,7.7985e-05,9.53e-06,0.0,0 STARLINK-3841,1 52369U 22045AQ  24168.64276288  .00000953  00000-0  77985-4 0  9999,2 52369  53.2170 141.9996 0001500  87.2022 272.9142 15.08841248120653,6917.877,95.437,540.779,538.704,0.0
52369.0,STARLINK-3841,PAYLOAD,2024-06-17 15:16:21,15.08843501,0.0001554,53.2179,137.5398,86.0643,274.0526,9.9311e-06,-1.3e-06,0.0,0 STARLINK-3841,1 52369U 22045AQ  24169.63636458 -.00000130  00000-0  99311-5 0  9994,2 52369  53.2179 137.5398 0001554  86.0643 274.0526 15.08843501120804,6917.87,95.437,540.81,538.66,0.0
52369.0,STARLINK-3841,PAYLOAD,2024-06-18 03:59:27,15.08837461,0.0001356,53.2157,135.1617,88.1609,271.9539,2.3553e-05,8.7e-07,0.0,0 STARLINK-3841,1 52369U 22045AQ  24170.16628819  .00000087  00000-0  23553-4 0  9990,2 52369  53.2157 135.1617 0001356  88.1609 271.9539 15.08837461120889,6917.888,95.438,540.691,538.815,0.0
52369.0,STARLINK-3841,PAYLOAD,2024-06-18 21:28:41,15.08836272,0.0001533,53.2149,131.8878,92.3045,267.8122,6.876e-05,8.06e-06,0.0,0 STARLINK-3841,1 52369U 22045AQ  24170.89492664  .00000806  00000-0  68760-4 0  9995,2 52369  53.2149 131.8878 0001533  92.3045 267.8122 15.08836272120993,6917.892,95.438,540.817,538.696,0.0
52369.0,STARLINK-3841,PAYLOAD,2024-06-19 03:50:14,15.08823994,0.00015,53.2169,130.6991,94.245,265.8714,0.00015317,2.15e-05,0.0,0 STARLINK-3841,1 52369U 22045AQ  24171.15989406  .00002150  00000-0  15317-3 0  9993,2 52369  53.2169 130.6991 0001500  94.2450 265.8714 15.08823994121031,6917.929,95.439,540.832,538.757,0.0
52369.0,STARLINK-3841,PAYLOAD,2024-06-19 07:01:00,15.08834898,0.0001496,53.2173,130.1043,95.431,264.6852,2.1123e-05,4.8e-07,0.0,0 STARLINK-3841,1 52369U 22045AQ  24171.29237037  .00000048  00000-0  21123-4 0  9991,2 52369  53.2173 130.1043 0001496  95.4310 264.6852 15.08834898121058,6917.896,95.438,540.796,538.726,0.0
52369.0,STARLINK-3841,PAYLOAD,2024-06-20 06:51:47,15.08839643,0.0001478,53.2176,125.6438,96.5216,263.5945,-6.0733e-06,-3.85e-06,0.0,0 STARLINK-3841,1 52369U 22045AQ  24172.28596945 -.00000385  00000-0 -60733-5 0  9994,2 52369  53.2176 125.6438 0001478  96.5216 263.5945 15.08839643121206,6917.881,95.438,540.769,538.724,0.0
52369.0,STARLINK-3841,PAYLOAD,2024-06-21 03:31:48,15.08836488,0.0001301,53.2173,121.7776,90.3147,269.7995,3.4249e-05,2.57e-06,0.0,0 STARLINK-3841,1 52369U 22045AQ  24173.14709111  .00000257  00000-0  34249-4 0  9999,2 52369  53.2173 121.7776 0001301  90.3147 269.7995 15.08836488121336,6917.891,95.438,540.656,538.856,0.0
52369.0,STARLINK-3841,PAYLOAD,2024-06-21 06:42:34,15.08836439,0.0001307,53.2174,121.183,90.0972,270.0169,3.279e-05,2.34e-06,0.0,0 STARLINK-3841,1 52369U 22045AQ  24173.27957146  .00000234  00000-0  32790-4 0  9990,2 52369  53.2174 121.1830 0001307  90.0972 270.0169 15.08836439121357,6917.891,95.438,540.66,538.852,0.0
52369.0,STARLINK-3841,PAYLOAD,2024-06-22 03:22:35,15.0883675,0.0001375,53.2176,117.317,102.1433,257.9714,2.6556e-05,1.35e-06,0.0,0 STARLINK-3841,1 52369U 22045AQ  24174.14069308  .00000135  00000-0  26556-4 0  9994,2 52369  53.2176 117.3170 0001375 102.1433 257.9714 15.08836750121485,6917.89,95.438,540.707,538.804,0.0
52369.0,STARLINK-3841,PAYLOAD,2024-06-22 20:51:50,15.0883498,0.0001415,53.2179,114.046,95.6765,264.4389,2.7403e-05,1.48e-06,0.0,0 STARLINK-3841,1 52369U 22045AQ  24174.86933635  .00000148  00000-0  27403-4 0  9992,2 52369  53.2179 114.0460 0001415  95.6765 264.4389 15.08834980121599,6917.896,95.438,540.74,538.782,0.0
52369.0,STARLINK-3841,PAYLOAD,2024-06-23 04:48:46,15.08834896,0.0001444,53.2177,112.5594,85.946,274.1698,2.2386e-05,6.8e-07,0.0,0 STARLINK-3841,1 52369U 22045AQ  24175.20053837  .00000068  00000-0  22386-4 0  9994,2 52369  53.2177 112.5594 0001444  85.9460 274.1698 15.08834896121647,6917.896,95.438,540.76,538.762,0.0
52369.0,STARLINK-3841,PAYLOAD,2024-06-24 04:39:32,15.08844317,0.0001448,53.2175,108.0976,84.0131,276.1027,9.8389e-05,1.278e-05,0.0,0 STARLINK-3841,1 52369U 22045AQ  24176.19413060  .00001278  00000-0  98389-4 0  9991,2 52369  53.2175 108.0976 0001448  84.0131 276.1027 15.08844317121791,6917.867,95.437,540.734,538.73,0.0
